NORAD_CAT_ID,OBJECT_NAME,OBJECT_TYPE,EPOCH,MEAN_MOTION,ECCENTRICITY,INCLINATION,RA_OF_ASC_NODE,ARG_OF_PERICENTER,MEAN_ANOMALY,BSTAR,MEAN_MOTION_DOT,MEAN_MOTION_DDOT,TLE_LINE0,TLE_LINE1,TLE_LINE2,SEMIMAJOR_AXIS,PERIOD,APOGEE,PERIGEE,DECAYED
52291.0,STARLINK-3773,PAYLOAD,2024-04-01 12:35:20,15.09437068,0.000139,53.2175,33.6888,128.8957,231.216,0.0018466,0.0002971,0.0,0 STARLINK-3773,1 52291U 22041AG  24092.52454308  .00029710  00000-0  18466-2 0  9992,2 52291  53.2175  33.6888 0001390 128.8957 231.2160 15.09437068107740,6916.056,95.4,538.882,536.96,0.0
52291.0,STARLINK-3773,PAYLOAD,2024-04-02 12:25:31,15.09488423,0.0001399,53.2177,29.2263,133.4316,226.6793,0.001439,0.00023099,0.0,0 STARLINK-3773,1 52291U 22041AG  24093.51773113  .00023099  00000-0  14390-2 0  9996,2 52291  53.2177  29.2263 0001399 133.4316 226.6793 15.09488423109114,6915.899,95.397,538.732,536.797,0.0
52291.0,STARLINK-3773,PAYLOAD,2024-04-02 20:22:15,15.09505612,0.0001403,53.2176,27.7387,135.9731,224.1374,0.0014492,0.00023277,0.0,0 STARLINK-3773,1 52291U 22041AG  24093.84878620  .00023277  00000-0  14492-2 0  9992,2 52291  53.2176  27.7387 0001403 135.9731 224.1374 15.09505612107944,6915.847,95.395,538.682,536.741,0.0
52291.0,STARLINK-3773,PAYLOAD,2024-04-03 12:15:40,15.09535894,0.0001388,53.2174,24.7633,138.3467,221.7631,0.0013202,0.00021191,0.0,0 STARLINK-3773,1 52291U 22041AG  24094.51088591  .00021191  00000-0  13202-2 0  9998,2 52291  53.2174  24.7633 0001388 138.3467 221.7631 15.09535894108044,6915.754,95.394,538.579,536.659,0.0
52291.0,STARLINK-3773,PAYLOAD,2024-04-04 04:09:04,15.09561699,0.0001378,53.2172,21.7881,139.775,220.3344,0.0011241,0.00018005,0.0,0 STARLINK-3773,1 52291U 22041AG  24095.17297323  .00018005  00000-0  11241-2 0  9997,2 52291  53.2172  21.7881 0001378 139.7750 220.3344 15.09561699109367,6915.675,95.392,538.493,536.587,0.0
52291.0,STARLINK-3773,PAYLOAD,2024-04-04 12:05:46,15.09576971,0.0001394,53.2173,20.3001,142.1767,217.9324,0.0012887,0.000207,0.0,0 STARLINK-3773,1 52291U 22041AG  24095.50401262  .00020700  00000-0  12887-2 0  9995,2 52291  53.2173  20.3001 0001394 142.1767 217.9324 15.09576971108190,6915.629,95.391,538.458,536.53,0.0
52291.0,STARLINK-3773,PAYLOAD,2024-04-05 11:55:50,15.09626525,0.0001354,53.2172,15.8367,142.8004,217.3083,0.0015728,0.00025379,0.0,0 STARLINK-3773,1 52291U 22041AG  24096.49711024  .00025379  00000-0  15728-2 0  9998,2 52291  53.2172  15.8367 0001354 142.8004 217.3083 15.09626525109569,6915.477,95.388,538.279,536.406,0.0
52291.0,STARLINK-3773,PAYLOAD,2024-04-05 18:17:10,15.09638041,0.0001391,53.2172,14.6465,142.6046,217.5043,0.0014799,0.00023865,0.0,0 STARLINK-3773,1 52291U 22041AG  24096.76193128  .00023865  00000-0  14799-2 0  9992,2 52291  53.2172  14.6465 0001391 142.6046 217.5043 15.09638041108383,6915.442,95.387,538.269,536.345,0.0
52291.0,STARLINK-3773,PAYLOAD,2024-04-06 11:45:51,15.09679071,0.00013,53.2172,11.3737,143.8687,216.2393,0.0016294,0.00026345,0.0,0 STARLINK-3773,1 52291U 22041AG  24097.49017421  .00026345  00000-0  16294-2 0  9992,2 52291  53.2172  11.3737 0001300 143.8687 216.2393 15.09679071108497,6915.317,95.385,538.081,536.283,0.0
52291.0,STARLINK-3773,PAYLOAD,2024-04-06 22:53:10,15.09702494,0.0001274,53.2173,9.2908,143.9547,216.1532,0.0015382,0.00024865,0.0,0 STARLINK-3773,1 52291U 22041AG  24097.95359211  .00024865  00000-0  15382-2 0  9991,2 52291  53.2173   9.2908 0001274 143.9547 216.1532 15.09702494108568,6915.245,95.383,537.991,536.229,0.0
52291.0,STARLINK-3773,PAYLOAD,2024-04-07 11:35:48,15.09729367,0.0001236,53.2176,6.91,145.0385,215.0689,0.00144,0.00023271,0.0,0 STARLINK-3773,1 52291U 22041AG  24098.48320336  .00023271  00000-0  14400-2 0  9996,2 52291  53.2176   6.9100 0001236 145.0385 215.0689 15.09729367108648,6915.163,95.381,537.883,536.174,0.0
52291.0,STARLINK-3773,PAYLOAD,2024-04-07 22:43:06,15.09752024,0.0001216,53.2177,4.827,145.5635,214.5437,0.0014242,0.00023026,0.0,0 STARLINK-3773,1 52291U 22041AG  24098.94660566  .00023026  00000-0  14242-2 0  9991,2 52291  53.2177   4.8270 0001216 145.5635 214.5437 15.09752024108714,6915.094,95.38,537.8,536.118,0.0
52291.0,STARLINK-3773,PAYLOAD,2024-04-08 00:18:26,15.0975491,0.0001205,53.2177,4.5294,145.3321,214.775,0.0014184,0.00022933,0.0,0 STARLINK-3773,1 52291U 22041AG  24099.01280552  .00022933  00000-0  14184-2 0  9994,2 52291  53.2177   4.5294 0001205 145.3321 214.7750 15.09754910108722,6915.085,95.38,537.784,536.117,0.0
52291.0,STARLINK-3773,PAYLOAD,2024-04-09 00:08:19,15.09806514,0.0001157,53.2178,0.0653,149.224,210.8821,0.0014717,0.00023842,0.0,0 STARLINK-3773,1 52291U 22041AG  24100.00578339  .00023842  00000-0  14717-2 0  9991,2 52291  53.2178   0.0653 0001157 149.2240 210.8821 15.09806514108872,6914.928,95.376,537.593,535.993,0.0
52291.0,STARLINK-3773,PAYLOAD,2024-04-09 03:18:58,15.09811906,0.0001132,53.2177,359.4701,149.8352,210.2706,0.001315,0.00021268,0.0,0 STARLINK-3773,1 52291U 22041AG  24100.13817778  .00021268  00000-0  13150-2 0  9998,2 52291  53.2177 359.4701 0001132 149.8352 210.2706 15.09811906110116,6914.911,95.376,537.559,535.993,0.0
52291.0,STARLINK-3773,PAYLOAD,2024-04-10 09:30:05,15.09877274,0.0001154,53.2179,353.8154,156.6075,203.497,0.0015621,0.0002538,0.0,0 STARLINK-3773,1 52291U 22041AG  24101.39589792  .00025380  00000-0  15621-2 0  9993,2 52291  53.2179 353.8154 0001154 156.6075 203.4970 15.09877274110308,6914.712,95.372,537.375,535.779,0.0
52291.0,STARLINK-3773,PAYLOAD,2024-04-10 22:12:38,15.09900794,0.0001097,53.2176,351.4342,159.3507,200.753,0.0013962,0.0002266,0.0,0 STARLINK-3773,1 52291U 22041AG  24101.92544883  .00022660  00000-0  13962-2 0  9998,2 52291  53.2176 351.4342 0001097 159.3507 200.7530 15.09900794109162,6914.64,95.371,537.263,535.746,0.0
52291.0,STARLINK-3773,PAYLOAD,2024-04-11 09:19:52,15.0992318,0.000108,53.2172,349.3502,162.974,197.1289,0.0013083,0.00021224,0.0,0 STARLINK-3773,1 52291U 22041AG  24102.38879812  .00021224  00000-0  13083-2 0  9991,2 52291  53.2172 349.3502 0001080 162.9740 197.1289 15.09923180109235,6914.572,95.369,537.183,535.69,0.0
52291.0,STARLINK-3773,PAYLOAD,2024-04-11 20:27:04,15.09944545,0.0001068,53.2168,347.2667,165.4516,194.6507,0.001307,0.00021215,0.0,0 STARLINK-3773,1 52291U 22041AG  24102.85214111  .00021215  00000-0  13070-2 0  9994,2 52291  53.2168 347.2667 0001068 165.4516 194.6507 15.09944545110521,6914.506,95.368,537.11,535.633,0.0
52291.0,STARLINK-3773,PAYLOAD,2024-04-11 22:02:23,15.0994766,0.0001055,53.2169,346.9692,165.1975,194.9049,0.0013198,0.00021428,0.0,0 STARLINK-3773,1 52291U 22041AG  24102.91833243  .00021428  00000-0  13198-2 0  9991,2 52291  53.2169 346.9692 0001055 165.1975 194.9049 15.09947660109318,6914.497,95.368,537.091,535.632,0.0
52291.0,STARLINK-3773,PAYLOAD,2024-04-12 01:13:01,15.09954239,0.000106,53.2168,346.3741,165.767,194.3353,0.0013518,0.0002196,0.0,0 STARLINK-3773,1 52291U 22041AG  24103.05071461  .00021960  00000-0  13518-2 0  9990,2 52291  53.2168 346.3741 0001060 165.7670 194.3353 15.09954239109334,6914.477,95.367,537.075,535.609,0.0
52291.0,STARLINK-3773,PAYLOAD,2024-04-12 21:52:06,15.09998244,0.000106,53.2166,342.5042,170.9434,189.1578,0.0014467,0.00023556,0.0,0 STARLINK-3773,1 52291U 22041AG  24103.91118385  .00023556  00000-0  14467-2 0  9999,2 52291  53.2166 342.5042 0001060 170.9434 189.1578 15.09998244109469,6914.342,95.364,536.94,535.474,0.0
52291.0,STARLINK-3773,PAYLOAD,2024-04-13 01:02:43,15.10004636,0.000105,53.2166,341.909,171.5966,188.5044,0.0014733,0.00024001,0.0,0 STARLINK-3773,1 52291U 22041AG  24104.04356181  .00024001  00000-0  14733-2 0  9994,2 52291  53.2166 341.9090 0001050 171.5966 188.5044 15.10004636110706,6914.323,95.364,536.914,535.462,0.0
52291.0,STARLINK-3773,PAYLOAD,2024-04-13 21:41:45,15.10055337,9.8e-05,53.2162,338.0393,178.5291,181.5705,0.0017496,0.00028615,0.0,0 STARLINK-3773,1 52291U 22041AG  24104.90400086  .00028615  00000-0  17496-2 0  9997,2 52291  53.2162 338.0393 0000980 178.5291 181.5705 15.10055337109613,6914.168,95.361,536.711,535.355,0.0
52291.0,STARLINK-3773,PAYLOAD,2024-04-13 23:17:04,15.10059274,9.36e-05,53.2165,337.7419,176.8927,183.2072,0.0017366,0.00028403,0.0,0 STARLINK-3773,1 52291U 22041AG  24104.97018743  .00028403  00000-0  17366-2 0  9990,2 52291  53.2165 337.7419 0000936 176.8927 183.2072 15.10059274110846,6914.156,95.36,536.668,535.374,0.0
52291.0,STARLINK-3773,PAYLOAD,2024-04-14 21:31:21,15.10117779,8.34e-05,53.2168,333.5742,182.9637,177.1351,0.0021467,0.0003527,0.0,0 STARLINK-3773,1 52291U 22041AG  24105.89678102  .00035270  00000-0  21467-2 0  9990,2 52291  53.2168 333.5742 0000834 182.9637 177.1351 15.10117779109761,6913.977,95.357,536.419,535.266,0.0
52291.0,STARLINK-3773,PAYLOAD,2024-04-15 14:59:41,15.10169292,6.86e-05,53.2172,330.2989,188.4542,171.6439,0.0021336,0.00035102,0.0,0 STARLINK-3773,1 52291U 22041AG  24106.62479053  .00035102  00000-0  21336-2 0  9995,2 52291  53.2172 330.2989 0000686 188.4542 171.6439 15.10169292109879,6913.82,95.354,536.16,535.211,0.0
52291.0,STARLINK-3773,PAYLOAD,2024-04-15 21:20:54,15.10189141,7.82e-05,53.217,329.1072,192.1656,167.9318,0.0022517,0.00037092,0.0,0 STARLINK-3773,1 52291U 22041AG  24106.88951469  .00037092  00000-0  22517-2 0  9991,2 52291  53.2170 329.1072 0000782 192.1656 167.9318 15.10189141109916,6913.76,95.352,536.165,535.084,0.0
52291.0,STARLINK-3773,PAYLOAD,2024-04-16 19:35:03,15.10278452,7.08e-05,53.2174,324.9393,203.8938,156.2022,0.0030334,0.00050288,0.0,0 STARLINK-3773,1 52291U 22041AG  24107.81601785  .00050288  00000-0  30334-2 0  9996,2 52291  53.2174 324.9393 0000708 203.8938 156.2022 15.10278452111279,6913.487,95.347,535.842,534.863,0.0
52291.0,STARLINK-3773,PAYLOAD,2024-04-16 21:10:21,15.10286195,7.1e-05,53.2171,324.6414,204.9596,155.1363,0.0031056,0.00051512,0.0,0 STARLINK-3773,1 52291U 22041AG  24107.88219437  .00051512  00000-0  31056-2 0  9995,2 52291  53.2171 324.6414 0000710 204.9596 155.1363 15.10286195110067,6913.463,95.346,535.819,534.838,0.0
